FLOCK 4G-6              
1 62660U 25009BD  26068.71061311  .00012261  00000+0  45910-3 0  9991
2 62660  97.3980 150.7943 0002380 348.2637  11.8546 15.27432125121307
STARLINK-32937          
1 63148U 25043S   26068.23576516  .00037573  00000+0  13678-2 0  9994
2 63148  43.0038  18.7338 0001382 274.4131  85.6562 15.27583177 57299
